{
  "type": "FeatureCollection",
  "features": [
    {
      "type": "Feature",
      "properties": {
        "norad_id": 34299,
        "name": "COSMOS 2251 DEB",
        "group": "cosmos-2251-debris",
        "lat": 72.80388566253968,
        "lon": 65.04529672047316,
        "alt_km": 369.01504750861386,
        "timestamp": "2025-12-02T19:35:50.948415+00:00",
        "meta_object_name": "COSMOS 2251 DEB",
        "meta_object_id": "1993-036MV",
        "meta_epoch": "2025-12-02T11:32:13.295616",
        "meta_mean_motion": 15.5812695,
        "meta_eccentricity": 0.0025154,
        "meta_inclination": 73.9834,
        "meta_ra_of_asc_node": 357.6329,
        "meta_arg_of_pericenter": 63.9269,
        "meta_mean_anomaly": 296.4532,
        "meta_ephemeris_type": 0,
        "meta_classification_type": "U",
        "meta_norad_cat_id": 34299,
        "meta_element_set_no": 999,
        "meta_rev_at_epoch": 88850,
        "meta_bstar": 0.0056252,
        "meta_mean_motion_dot": 0.00453889,
        "meta_mean_motion_ddot": 0,
        "tle_line1": "1 34299U 93036MV  25336.48070944  .00453889  00000+0  56252-2 0  9991",
        "tle_line2": "2 34299  73.9834 357.6329 0025154  63.9269 296.4532 15.58126950888502"
      },
      "geometry": {
        "type": "Point",
        "coordinates": [
          65.04529672047316,
          72.80388566253968
        ]
      }
    },
    {
      "type": "Feature",
      "properties": {
        "norad_id": 34301,
        "name": "COSMOS 2251 DEB",
        "group": "cosmos-2251-debris",
        "lat": 34.6377995524345,
        "lon": -5.016163416622831,
        "alt_km": 616.5375342414973,
        "timestamp": "2025-12-02T19:35:50.948425+00:00",
        "meta_object_name": "COSMOS 2251 DEB",
        "meta_object_id": "1993-036MX",
        "meta_epoch": "2025-12-02T08:25:44.639040",
        "meta_mean_motion": 14.83751874,
        "meta_eccentricity": 0.0012498,
        "meta_inclination": 74.0066,
        "meta_ra_of_asc_node": 187.3353,
        "meta_arg_of_pericenter": 246.0039,
        "meta_mean_anomaly": 293.1462,
        "meta_ephemeris_type": 0,
        "meta_classification_type": "U",
        "meta_norad_cat_id": 34301,
        "meta_element_set_no": 999,
        "meta_rev_at_epoch": 88246,
        "meta_bstar": 0.0029482,
        "meta_mean_motion_dot": 0.00024489,
        "meta_mean_motion_ddot": 0,
        "tle_line1": "1 34301U 93036MX  25336.35121110  .00024489  00000+0  29482-2 0  9998",
        "tle_line2": "2 34301  74.0066 187.3353 0012498 246.0039 293.1462 14.83751874882467"
      },
      "geometry": {
        "type": "Point",
        "coordinates": [
          -5.016163416622831,
          34.6377995524345
        ]
      }
    },
    {
      "type": "Feature",
      "properties": {
        "norad_id": 34302,
        "name": "COSMOS 2251 DEB",
        "group": "cosmos-2251-debris",
        "lat": 33.19364252784763,
        "lon": 152.4291453695098,
        "alt_km": 712.6064065536048,
        "timestamp": "2025-12-02T19:35:50.948435+00:00",
        "meta_object_name": "COSMOS 2251 DEB",
        "meta_object_id": "1993-036MY",
        "meta_epoch": "2025-12-02T11:14:24.416160",
        "meta_mean_motion": 14.39266981,
        "meta_eccentricity": 0.0078153,
        "meta_inclination": 74.1771,
        "meta_ra_of_asc_node": 142.3741,
        "meta_arg_of_pericenter": 0.6196,
        "meta_mean_anomaly": 30.1063,
        "meta_ephemeris_type": 0,
        "meta_classification_type": "U",
        "meta_norad_cat_id": 34302,
        "meta_element_set_no": 999,
        "meta_rev_at_epoch": 87573,
        "meta_bstar": 0.00083321,
        "meta_mean_motion_dot": 2.654e-05,
        "meta_mean_motion_ddot": 0,
        "tle_line1": "1 34302U 93036MY  25336.46833815  .00002654  00000+0  83321-3 0  9996",
        "tle_line2": "2 34302  74.1771 142.3741 0078153   0.6196  30.1063 14.39266981875731"
      },
      "geometry": {
        "type": "Point",
        "coordinates": [
          152.4291453695098,
          33.19364252784763
        ]
      }
    },
    {
      "type": "Feature",
      "properties": {
        "norad_id": 34303,
        "name": "COSMOS 2251 DEB",
        "group": "cosmos-2251-debris",
        "lat": 36.174863948671764,
        "lon": -41.04401050615615,
        "alt_km": 646.4571876644513,
        "timestamp": "2025-12-02T19:35:50.948445+00:00",
        "meta_object_name": "COSMOS 2251 DEB",
        "meta_object_id": "1993-036MZ",
        "meta_epoch": "2025-12-02T08:23:24.836928",
        "meta_mean_motion": 14.54239397,
        "meta_eccentricity": 0.0134909,
        "meta_inclination": 74.0049,
        "meta_ra_of_asc_node": 307.7332,
        "meta_arg_of_pericenter": 88.7648,
        "meta_mean_anomaly": 26.6664,
        "meta_ephemeris_type": 0,
        "meta_classification_type": "U",
        "meta_norad_cat_id": 34303,
        "meta_element_set_no": 999,
        "meta_rev_at_epoch": 87811,
        "meta_bstar": 0.0013441,
        "meta_mean_motion_dot": 6.406e-05,
        "meta_mean_motion_ddot": 0,
        "tle_line1": "1 34303U 93036MZ  25336.34959302  .00006406  00000+0  13441-2 0  9998",
        "tle_line2": "2 34303  74.0049 307.7332 0134909  88.7648  26.6664 14.54239397878113"
      },
      "geometry": {
        "type": "Point",
        "coordinates": [
          -41.04401050615615,
          36.174863948671764
        ]
      }
    },
    {
      "type": "Feature",
      "properties": {
        "norad_id": 34304,
        "name": "COSMOS 2251 DEB",
        "group": "cosmos-2251-debris",
        "lat": 22.133596988220233,
        "lon": 147.59390472240804,
        "alt_km": 784.2034775262418,
        "timestamp": "2025-12-02T19:35:50.948456+00:00",
        "meta_object_name": "COSMOS 2251 DEB",
        "meta_object_id": "1993-036NA",
        "meta_epoch": "2025-12-01T20:40:35.505120",
        "meta_mean_motion": 14.3769965,
        "meta_eccentricity": 0.01288369,
        "meta_inclination": 74.012,
        "meta_ra_of_asc_node": 142.6577,
        "meta_arg_of_pericenter": 282.6807,
        "meta_mean_anomaly": 198.0091,
        "meta_ephemeris_type": 0,
        "meta_classification_type": "U",
        "meta_norad_cat_id": 34304,
        "meta_element_set_no": 999,
        "meta_rev_at_epoch": 87140,
        "meta_bstar": 0.00127382,
        "meta_mean_motion_dot": 4.188e-05,
        "meta_mean_motion_ddot": 0,
        "tle_line1": "1 34304U 93036NA  25335.86152205  .00004188  00000+0  12738-2 0  9995",
        "tle_line2": "2 34304  74.0120 142.6577 0128836 282.6807 198.0091 14.37699650871401"
      },
      "geometry": {
        "type": "Point",
        "coordinates": [
          147.59390472240804,
          22.133596988220233
        ]
      }
    },
    {
      "type": "Feature",
      "properties": {
        "norad_id": 34307,
        "name": "COSMOS 2251 DEB",
        "group": "cosmos-2251-debris",
        "lat": -31.28703581318852,
        "lon": -40.96619774552781,
        "alt_km": 1343.4985453125182,
        "timestamp": "2025-12-02T19:35:50.948466+00:00",
        "meta_object_name": "COSMOS 2251 DEB",
        "meta_object_id": "1993-036ND",
        "meta_epoch": "2025-12-02T02:23:23.743968",
        "meta_mean_motion": 13.54298757,
        "meta_eccentricity": 0.03924247,
        "meta_inclination": 74.0532,
        "meta_ra_of_asc_node": 330.1897,
        "meta_arg_of_pericenter": 163.4569,
        "meta_mean_anomaly": 268.4475,
        "meta_ephemeris_type": 0,
        "meta_classification_type": "U",
        "meta_norad_cat_id": 34307,
        "meta_element_set_no": 999,
        "meta_rev_at_epoch": 82718,
        "meta_bstar": 0.00066384063,
        "meta_mean_motion_dot": 7.19e-06,
        "meta_mean_motion_ddot": 0,
        "tle_line1": "1 34307U 93036ND  25336.09958037  .00000719  00000+0  66384-3 0  9994",
        "tle_line2": "2 34307  74.0532 330.1897 0392424 163.4569 268.4475 13.54298757827182"
      },
      "geometry": {
        "type": "Point",
        "coordinates": [
          -40.96619774552781,
          -31.28703581318852
        ]
      }
    },
    {
      "type": "Feature",
      "properties": {
        "norad_id": 34313,
        "name": "COSMOS 2251 DEB",
        "group": "cosmos-2251-debris",
        "lat": 34.19150529163408,
        "lon": -22.429606176722263,
        "alt_km": 509.67988330924345,
        "timestamp": "2025-12-02T19:35:50.948476+00:00",
        "meta_object_name": "COSMOS 2251 DEB",
        "meta_object_id": "1993-036NK",
        "meta_epoch": "2025-12-02T09:56:29.604192",
        "meta_mean_motion": 15.1660743,
        "meta_eccentricity": 0.0010314,
        "meta_inclination": 73.9721,
        "meta_ra_of_asc_node": 327.1498,
        "meta_arg_of_pericenter": 95.2372,
        "meta_mean_anomaly": 265.0001,
        "meta_ephemeris_type": 0,
        "meta_classification_type": "U",
        "meta_norad_cat_id": 34313,
        "meta_element_set_no": 999,
        "meta_rev_at_epoch": 88908,
        "meta_bstar": 0.0039699,
        "meta_mean_motion_dot": 0.00078511,
        "meta_mean_motion_ddot": 0,
        "tle_line1": "1 34313U 93036NK  25336.41423153  .00078511  00000+0  39699-2 0  9996",
        "tle_line2": "2 34313  73.9721 327.1498 0010314  95.2372 265.0001 15.16607430889086"
      },
      "geometry": {
        "type": "Point",
        "coordinates": [
          -22.429606176722263,
          34.19150529163408
        ]
      }
    }
  ]
}